ONEWEB-0235             
1 48771U 21045E   23059.22730025  .00000094  00000+0  21516-3 0  9999
2 48771  87.9090 139.1256 0000854 101.9301 258.1925 13.15546442 87070
ONEWEB-0235             
1 48771U 21045E   23059.30335780  .00000038  00000+0  65710-4 0  9990
2 48771  87.9090 139.1105 0000851 102.1063 258.0163 13.15546578 85967
ONEWEB-0235             
1 48771U 21045E   23059.91181724  .00000130  00000+0  31126-3 0  9990
2 48771  87.9088 138.9898 0000850 102.0860 258.0365 13.15547294 86043
ONEWEB-0235             
1 48771U 21045E   23060.29210513  .00000113  00000+0  26692-3 0  9995
2 48771  87.9088 138.9143 0000862 103.1485 256.9742 13.15546771 87219
ONEWEB-0235             
1 48771U 21045E   23060.90056532  .00000172  00000+0  42308-3 0  9999
2 48771  87.9087 138.7937 0000881 105.1776 254.9451 13.15546221 86172
ONEWEB-0235             
1 48771U 21045E   23061.58508253  .00000125  00000+0  29921-3 0  9990
2 48771  87.9085 138.6582 0000874 110.1620 249.9604 13.15546297 86268
ONEWEB-0235             
1 48771U 21045E   23062.26959911  .00000120  00000+0  28532-3 0  9999
2 48771  87.9084 138.5224 0000893 111.4592 248.6634 13.15546723 86355
ONEWEB-0235             
1 48771U 21045E   23062.26959911  .00000120  00000+0  28532-3 0  9999
2 48771  87.9084 138.5224 0000893 111.4592 248.6634 13.15546723 87479
